[{"OBJECT_NAME":"STARLINK-30278","OBJECT_ID":"2023-124F","EPOCH":"2026-03-09T16:46:42.610656","MEAN_MOTION":15.30195609,"ECCENTRICITY":0.00012414,"INCLINATION":53.1615,"RA_OF_ASC_NODE":206.9968,"ARG_OF_PERICENTER":72.608,"MEAN_ANOMALY":287.5057,"EPHEMERIS_TYPE":0,"CLASSIFICATION_TYPE":"U","NORAD_CAT_ID":57668,"ELEMENT_SET_NO":999,"REV_AT_EPOCH":14356,"BSTAR":4.140443e-5,"MEAN_MOTION_DOT":8.67e-6,"MEAN_MOTION_DDOT":0},{"OBJECT_NAME":"CZ-2C R\/B","OBJECT_ID":"2024-218A","EPOCH":"2026-03-09T22:16:31.791072","MEAN_MOTION":15.22960743,"ECCENTRICITY":0.00453409,"INCLINATION":97.5416,"RA_OF_ASC_NODE":83.973,"ARG_OF_PERICENTER":359.5317,"MEAN_ANOMALY":0.5869,"EPHEMERIS_TYPE":0,"CLASSIFICATION_TYPE":"U","NORAD_CAT_ID":62078,"ELEMENT_SET_NO":999,"REV_AT_EPOCH":7134,"BSTAR":0.00039378379,"MEAN_MOTION_DOT":9.445e-5,"MEAN_MOTION_DDOT":0}]
